IRIDIUM 26              
1 24903U 97043A   25095.63362175  .00000622  00000+0  20312-3 0  9995
2 24903  86.3963 141.1037 0002185  89.4085 270.7363 14.37066496446325
IRIDIUM 22              
1 24907U 97043E   25095.64311659  .00000660  00000+0  22122-3 0  9994
2 24907  86.3976 144.5734 0002250  94.1431 266.0023 14.35891475446361
DUMMY MASS 1            
1 24925U 97048A   25096.20846548  .00000971  00000+0  10553-3 0  9992
2 24925  86.3402 168.5955 0008435  54.4676 305.7334 14.86910900494671
DUMMY MASS 2            
1 24926U 97048B   25096.22595467  .00000964  00000+0  10532-3 0  9995
2 24926  86.3403 170.1794 0009473  62.4593 297.7593 14.86663820494452
IRIDIUM 29              
1 24944U 97051A   25096.45781942  .00000921  00000+0  30813-3 0  9996
2 24944  86.4023 173.9632 0002342  99.3398 260.8064 14.36391372443197
IRIDIUM 33              
1 24946U 97051C   25095.73378496  .00000552  00000+0  18771-3 0  9993
2 24946  86.3939 173.5211 0006307 328.1900  31.8914 14.34839602442358
IRIDIUM 28              
1 24948U 97051E   25095.78146664  .00000790  00000+0  25846-3 0  9995
2 24948  86.4027 171.8065 0001944  85.2180 274.9239 14.37318881443445
IRIDIUM 36              
1 24967U 97056C   25095.82546213  .00001045  00000+0  34241-3 0  9993
2 24967  86.4031 203.3583 0001900  97.9258 262.2155 14.37530323441829
